NORAD_CAT_ID,OBJECT_NAME,OBJECT_TYPE,EPOCH,MEAN_MOTION,ECCENTRICITY,INCLINATION,RA_OF_ASC_NODE,ARG_OF_PERICENTER,MEAN_ANOMALY,BSTAR,MEAN_MOTION_DOT,MEAN_MOTION_DDOT,TLE_LINE0,TLE_LINE1,TLE_LINE2,SEMIMAJOR_AXIS,PERIOD,APOGEE,PERIGEE,DECAYED
56490.0,STARLINK-5873,PAYLOAD,2023-08-10 09:38:45,15.69924355,0.000381,69.9974,347.5328,276.7959,83.2803,7.9975e-06,7.49e-06,0.0,0 STARLINK-5873,1 56490U 23064AU  23222.40191300  .00000749  00000-0  79975-5 0  9990,2 56490  69.9974 347.5328 0003810 276.7959  83.2803 15.69924355 14760,6737.25,91.724,361.682,356.549,0.0
56490.0,STARLINK-5873,PAYLOAD,2023-08-11 10:06:47,15.69924288,0.0003771,69.9977,344.6649,272.801,87.2754,5.1869e-06,4.11e-06,0.0,0 STARLINK-5873,1 56490U 23064AU  23223.42138024  .00000411  00000-0  51869-5 0  9995,2 56490  69.9977 344.6649 0003771 272.8010  87.2754 15.69924288 14920,6737.251,91.724,361.656,356.575,0.0
56490.0,STARLINK-5873,PAYLOAD,2023-08-12 10:34:49,15.69927721,0.000352,69.9983,341.7991,271.6939,88.3853,2.5403e-06,9.3e-07,0.0,0 STARLINK-5873,1 56490U 23064AU  23224.44084875  .00000093  00000-0  25403-5 0  9993,2 56490  69.9983 341.7991 0003520 271.6939  88.3853 15.69927721 15089,6737.241,91.724,361.477,356.734,0.0
56490.0,STARLINK-5873,PAYLOAD,2023-08-12 18:13:34,15.69937607,0.0003358,69.9979,340.9025,269.7775,90.3036,2.5626e-06,9.5e-07,0.0,0 STARLINK-5873,1 56490U 23064AU  23224.75942461  .00000095  00000-0  25626-5 0  9990,2 56490  69.9979 340.9025 0003358 269.7775  90.3036 15.69937607 15134,6737.213,91.723,361.34,356.815,0.0
56490.0,STARLINK-5873,PAYLOAD,2023-08-13 17:09:46,15.69994746,0.0003452,69.9976,338.2157,283.6514,76.4297,7.6099e-05,8.974e-05,0.0,0 STARLINK-5873,1 56490U 23064AU  23225.71512464  .00008974  00000-0  76099-4 0  9996,2 56490  69.9976 338.2157 0003452 283.6514  76.4297 15.69994746 15285,6737.049,91.72,361.24,356.588,0.0
56490.0,STARLINK-5873,PAYLOAD,2023-08-14 00:48:32,15.69974705,0.0004194,69.9981,337.3201,273.0028,87.0687,5.8941e-05,6.896e-05,0.0,0 STARLINK-5873,1 56490U 23064AU  23226.03371152  .00006896  00000-0  58941-4 0  9996,2 56490  69.9981 337.3201 0004194 273.0028  87.0687 15.69974705 15338,6737.106,91.721,361.797,356.146,0.0
56490.0,STARLINK-5873,PAYLOAD,2023-08-14 08:27:22,15.69911803,0.0003163,69.9982,336.4247,272.7398,87.3436,-9.7668e-06,-1.386e-05,0.0,0 STARLINK-5873,1 56490U 23064AU  23226.35234773 -.00001386  00000-0 -97668-5 0  9999,2 56490  69.9982 336.4247 0003163 272.7398  87.3436 15.69911803 15380,6737.286,91.725,361.282,357.02,0.0
56490.0,STARLINK-5873,PAYLOAD,2023-08-14 11:30:53,15.69905171,0.0003478,69.9976,336.0664,270.6322,89.4475,-1.5628e-05,-2.09e-05,0.0,0 STARLINK-5873,1 56490U 23064AU  23226.47978576 -.00002090  00000-0 -15628-4 0  9996,2 56490  69.9976 336.0664 0003478 270.6322  89.4475 15.69905171 15405,6737.305,91.725,361.514,356.827,0.0
56490.0,STARLINK-5873,PAYLOAD,2023-08-15 10:27:09,15.69950901,0.0004379,69.997,333.3794,255.9134,104.1575,-7.8702e-05,-9.679e-05,0.0,0 STARLINK-5873,1 56490U 23064AU  23227.43552698 -.00009679  00000-0 -78702-4 0  9998,2 56490  69.9970 333.3794 0004379 255.9134 104.1575 15.69950901 15554,6737.174,91.723,361.99,356.089,0.0
56490.0,STARLINK-5873,PAYLOAD,2023-08-16 09:23:26,15.69920479,0.0003074,70.0016,330.6934,269.2415,90.8428,5.7842e-05,6.747e-05,0.0,0 STARLINK-5873,1 56490U 23064AU  23228.39128282  .00006747  00000-0  57842-4 0  9995,2 56490  70.0016 330.6934 0003074 269.2415  90.8428 15.69920479 15707,6737.262,91.724,361.198,357.055,0.0
56490.0,STARLINK-5873,PAYLOAD,2023-08-16 17:02:12,15.69913678,0.0003448,69.9991,329.7967,265.9809,94.0993,4.4143e-05,5.096e-05,0.0,0 STARLINK-5873,1 56490U 23064AU  23228.70987087  .00005096  00000-0  44143-4 0  9992,2 56490  69.9991 329.7967 0003448 265.9809  94.0993 15.69913678 15757,6737.281,91.725,361.469,356.823,0.0
56490.0,STARLINK-5873,PAYLOAD,2023-08-17 17:30:14,15.69913902,0.0003378,70.0009,326.9291,274.5991,85.4819,-1.2214e-05,-1.68e-05,0.0,0 STARLINK-5873,1 56490U 23064AU  23229.72933863 -.00001680  00000-0 -12214-4 0  9999,2 56490  70.0009 326.9291 0003378 274.5991  85.4819 15.69913902 15918,6737.28,91.725,361.421,356.869,0.0
56490.0,STARLINK-5873,PAYLOAD,2023-08-18 02:40:45,15.69929398,0.0003505,70.0004,325.8552,270.2808,89.7986,4.8551e-05,5.63e-05,0.0,0 STARLINK-5873,1 56490U 23064AU  23230.11163658  .00005630  00000-0  48551-4 0  9991,2 56490  70.0004 325.8552 0003505 270.2808  89.7986 15.69929398 15977,6737.236,91.724,361.462,356.74,0.0
56490.0,STARLINK-5873,PAYLOAD,2023-08-19 09:15:48,15.69929681,0.0003511,70.0003,322.2724,273.1735,86.9059,0.00014283,0.00017,0.0,0 STARLINK-5873,1 56490U 23064AU  23231.38597256  .00017000  00000-0  14283-3 0  9994,2 56490  70.0003 322.2724 0003511 273.1735  86.9059 15.69929681 16174,6737.235,91.724,361.466,356.735,0.0
56490.0,STARLINK-5873,PAYLOAD,2023-08-20 03:36:49,15.69922033,0.0003469,69.9999,320.1228,274.7583,85.3216,2.5019e-05,2.796e-05,0.0,0 STARLINK-5873,1 56490U 23064AU  23232.15057456  .00002796  00000-0  25019-4 0  9999,2 56490  69.9999 320.1228 0003469 274.7583  85.3216 15.69922033 16296,6737.257,91.724,361.459,356.785,0.0
56490.0,STARLINK-5873,PAYLOAD,2023-08-20 11:15:34,15.69939818,0.0003512,69.9996,319.227,271.8469,88.2325,9.0467e-05,0.00010686,0.0,0 STARLINK-5873,1 56490U 23064AU  23232.46915409  .00010686  00000-0  90467-4 0  9990,2 56490  69.9996 319.2270 0003512 271.8469  88.2325 15.69939818 16347,6737.206,91.723,361.437,356.705,0.0
56490.0,STARLINK-5873,PAYLOAD,2023-08-21 01:01:21,15.69932972,0.0003482,69.9997,317.6147,267.8138,92.2659,0.00012239,0.00014535,0.0,0 STARLINK-5873,1 56490U 23064AU  23233.04260607  .00014535  00000-0  12239-3 0  9995,2 56490  69.9997 317.6147 0003482 267.8138  92.2659 15.69932972 16436,6737.226,91.724,361.437,356.745,0.0
56490.0,STARLINK-5873,PAYLOAD,2023-08-22 01:29:23,15.69942804,0.0003482,69.9993,314.7481,264.0587,96.0212,0.00018166,0.00021704,0.0,0 STARLINK-5873,1 56490U 23064AU  23234.06207330  .00021704  00000-0  18166-3 0  9993,2 56490  69.9993 314.7481 0003482 264.0587  96.0212 15.69942804 16597,6737.198,91.723,361.409,356.717,0.0
56490.0,STARLINK-5873,PAYLOAD,2023-08-22 09:08:09,15.69927052,0.0004066,69.9993,313.8525,284.5567,75.5177,7.8947e-05,9.293e-05,0.0,0 STARLINK-5873,1 56490U 23064AU  23234.38066104  .00009293  00000-0  78947-4 0  9993,2 56490  69.9993 313.8525 0004066 284.5567  75.5177 15.69927052 16646,6737.243,91.724,361.847,356.368,0.0
56490.0,STARLINK-5873,PAYLOAD,2023-08-23 12:39:41,15.69922251,0.000303,70.0012,310.6298,238.5339,121.5561,0.00010378,0.00012283,0.0,0 STARLINK-5873,1 56490U 23064AU  23235.52756387  .00012283  00000-0  10378-3 0  9995,2 56490  70.0012 310.6298 0003030 238.5339 121.5561 15.69922251 16824,6737.256,91.724,361.163,357.08,0.0
56490.0,STARLINK-5873,PAYLOAD,2023-08-24 13:07:42,15.69938858,0.0003974,70.0,307.7618,263.4458,96.6285,0.00010043,0.00011889,0.0,0 STARLINK-5873,1 56490U 23064AU  23236.54702481  .00011889  00000-0  10043-3 0  9994,2 56490  70.0000 307.7618 0003974 263.4458  96.6285 15.69938858 16982,6737.209,91.723,361.751,356.397,0.0
56490.0,STARLINK-5873,PAYLOAD,2023-08-24 23:49:58,15.69937551,0.0003584,70.0006,306.5072,268.476,91.6025,6.3232e-05,7.401e-05,0.0,0 STARLINK-5873,1 56490U 23064AU  23236.99304073  .00007401  00000-0  63232-4 0  9992,2 56490  70.0006 306.5072 0003584 268.4760  91.6025 15.69937551 17052,6737.213,91.723,361.492,356.663,0.0
56490.0,STARLINK-5873,PAYLOAD,2023-08-25 13:35:45,15.69928459,0.0003823,70.0003,304.8954,277.8985,82.1776,3.4884e-05,3.985e-05,0.0,0 STARLINK-5873,1 56490U 23064AU  23237.56649340  .00003985  00000-0  34884-4 0  9999,2 56490  70.0003 304.8954 0003823 277.8985  82.1776 15.69928459 16793,6737.239,91.724,361.679,356.528,0.0
56490.0,STARLINK-5873,PAYLOAD,2023-08-26 07:56:46,15.69923356,0.0003477,70.0006,302.7473,270.0045,90.0753,1.2264e-05,1.262e-05,0.0,0 STARLINK-5873,1 56490U 23064AU  23238.33109594  .00001262  00000-0  12264-4 0  9991,2 56490  70.0006 302.7473 0003477 270.0045  90.0753 15.69923356 17263,6737.253,91.724,361.461,356.776,0.0
56490.0,STARLINK-5873,PAYLOAD,2023-08-26 14:03:47,15.6992487,0.0003447,69.9999,302.0303,265.5401,94.5401,7.9665e-06,7.45e-06,0.0,0 STARLINK-5873,1 56490U 23064AU  23238.58596265  .00000745  00000-0  79665-5 0  9997,2 56490  69.9999 302.0303 0003447 265.5401  94.5401 15.69924870 16954,6737.249,91.724,361.436,356.792,0.0
56490.0,STARLINK-5873,PAYLOAD,2023-08-27 05:21:18,15.69924896,0.0003441,70.0,300.2402,269.5212,90.559,1.9023e-05,2.075e-05,0.0,0 STARLINK-5873,1 56490U 23064AU  23239.22313060  .00002075  00000-0  19023-4 0  9998,2 56490  70.0000 300.2402 0003441 269.5212  90.5590 15.69924896 17053,6737.249,91.724,361.432,356.796,0.0
56490.0,STARLINK-5873,PAYLOAD,2023-08-27 13:00:04,15.69921253,0.0003506,69.9999,299.3442,270.7428,89.3366,1.0337e-05,1.03e-05,0.0,0 STARLINK-5873,1 56490U 23064AU  23239.54171650  .00001030  00000-0  10337-4 0  9999,2 56490  69.9999 299.3442 0003506 270.7428  89.3366 15.69921253 17459,6737.259,91.724,361.486,356.762,0.0
56490.0,STARLINK-5873,PAYLOAD,2023-08-28 13:28:06,15.69925263,0.0003678,69.9967,296.4748,272.7009,87.3765,9.3412e-06,9.1e-06,0.0,0 STARLINK-5873,1 56490U 23064AU  23240.56118301  .00000910  00000-0  93412-5 0  9999,2 56490  69.9967 296.4748 0003678 272.7009  87.3765 15.69925263 17612,6737.248,91.724,361.591,356.635,0.0
56490.0,STARLINK-5873,PAYLOAD,2023-08-28 21:06:51,15.69926101,0.0003725,69.9964,295.5792,269.6376,90.4393,1.3162e-05,1.37e-05,0.0,0 STARLINK-5873,1 56490U 23064AU  23240.87976501  .00001370  00000-0  13162-4 0  9991,2 56490  69.9964 295.5792 0003725 269.6376  90.4393 15.69926101 17314,6737.245,91.724,361.62,356.601,0.0
56490.0,STARLINK-5873,PAYLOAD,2023-08-29 13:56:08,15.69925672,0.0003598,69.9964,293.6088,272.3483,87.7301,1.0389e-05,1.036e-05,0.0,0 STARLINK-5873,1 56490U 23064AU  23241.58065075  .00001036  00000-0  10389-4 0  9992,2 56490  69.9964 293.6088 0003598 272.3483  87.7301 15.69925672 17779,6737.247,91.724,361.536,356.688,0.0
